{
  "type": "FeatureCollection",
  "features": [
    {
      "type": "Feature",
      "properties": {
        "norad_id": 41890,
        "name": "CYGFM07",
        "group": "weather",
        "lat": 7.61568061229683,
        "lon": 11.45722671509509,
        "alt_km": 418.52661119487675,
        "timestamp": "2025-12-15T22:44:28.563432+00:00",
        "meta_object_name": "CYGFM07",
        "meta_object_id": "2016-078G",
        "meta_epoch": "2025-12-15T08:46:22.668960",
        "meta_mean_motion": 15.50118833,
        "meta_eccentricity": 0.00100939,
        "meta_inclination": 34.9485,
        "meta_ra_of_asc_node": 4.236,
        "meta_arg_of_pericenter": 238.3569,
        "meta_mean_anomaly": 121.6169,
        "meta_ephemeris_type": 0,
        "meta_classification_type": "U",
        "meta_norad_cat_id": 41890,
        "meta_element_set_no": 999,
        "meta_rev_at_epoch": 50036,
        "meta_bstar": 0.00028250995,
        "meta_mean_motion_dot": 0.0001642,
        "meta_mean_motion_ddot": 0,
        "tle_line1": "1 41890U 16078G   25349.36554015  .00016420  00000+0  28251-3 0  9999",
        "tle_line2": "2 41890  34.9485   4.2360 0010093 238.3569 121.6169 15.50118833500366"
      },
      "geometry": {
        "type": "Point",
        "coordinates": [
          11.45722671509509,
          7.61568061229683
        ]
      }
    },
    {
      "type": "Feature",
      "properties": {
        "norad_id": 41891,
        "name": "CYGFM03",
        "group": "weather",
        "lat": -15.03061495038373,
        "lon": -155.04305485455765,
        "alt_km": 411.37988390341707,
        "timestamp": "2025-12-15T22:44:28.563443+00:00",
        "meta_object_name": "CYGFM03",
        "meta_object_id": "2016-078H",
        "meta_epoch": "2025-12-15T07:56:27.845376",
        "meta_mean_motion": 15.50015632,
        "meta_eccentricity": 0.00094999,
        "meta_inclination": 34.9439,
        "meta_ra_of_asc_node": 6.3837,
        "meta_arg_of_pericenter": 225.9581,
        "meta_mean_anomaly": 134.0359,
        "meta_ephemeris_type": 0,
        "meta_classification_type": "U",
        "meta_norad_cat_id": 41891,
        "meta_element_set_no": 999,
        "meta_rev_at_epoch": 50033,
        "meta_bstar": 0.00029283718,
        "meta_mean_motion_dot": 0.00016957,
        "meta_mean_motion_ddot": 0,
        "tle_line1": "1 41891U 16078H   25349.33087784  .00016957  00000+0  29284-3 0  9993",
        "tle_line2": "2 41891  34.9439   6.3837 0009499 225.9581 134.0359 15.50015632500331"
      },
      "geometry": {
        "type": "Point",
        "coordinates": [
          -155.04305485455765,
          -15.03061495038373
        ]
      }
    },
    {
      "type": "Feature",
      "properties": {
        "norad_id": 43010,
        "name": "FENGYUN 3D",
        "group": "weather",
        "lat": -13.074421634907473,
        "lon": 134.199128074532,
        "alt_km": 830.1667114181191,
        "timestamp": "2025-12-15T22:44:28.563454+00:00",
        "meta_object_name": "FENGYUN 3D",
        "meta_object_id": "2017-072A",
        "meta_epoch": "2025-12-15T08:18:09.978048",
        "meta_mean_motion": 14.19684632,
        "meta_eccentricity": 0.00010447,
        "meta_inclination": 98.989,
        "meta_ra_of_asc_node": 315.6953,
        "meta_arg_of_pericenter": 172.0819,
        "meta_mean_anomaly": 188.0373,
        "meta_ephemeris_type": 0,
        "meta_classification_type": "U",
        "meta_norad_cat_id": 43010,
        "meta_element_set_no": 999,
        "meta_rev_at_epoch": 41890,
        "meta_bstar": 5.3302195e-05,
        "meta_mean_motion_dot": 6.7e-07,
        "meta_mean_motion_ddot": 0,
        "tle_line1": "1 43010U 17072A   25349.34594882  .00000067  00000+0  53302-4 0  9990",
        "tle_line2": "2 43010  98.9890 315.6953 0001044 172.0819 188.0373 14.19684632418908"
      },
      "geometry": {
        "type": "Point",
        "coordinates": [
          134.199128074532,
          -13.074421634907473
        ]
      }
    },
    {
      "type": "Feature",
      "properties": {
        "norad_id": 43013,
        "name": "NOAA 20 (JPSS-1)",
        "group": "weather",
        "lat": -16.374392638209407,
        "lon": -71.19410025265266,
        "alt_km": 831.9536163802904,
        "timestamp": "2025-12-15T22:44:28.563466+00:00",
        "meta_object_name": "NOAA 20 (JPSS-1)",
        "meta_object_id": "2017-073A",
        "meta_epoch": "2025-12-15T07:35:39.306624",
        "meta_mean_motion": 14.19526433,
        "meta_eccentricity": 0.00021542,
        "meta_inclination": 98.7601,
        "meta_ra_of_asc_node": 285.585,
        "meta_arg_of_pericenter": 83.5254,
        "meta_mean_anomaly": 276.6168,
        "meta_ephemeris_type": 0,
        "meta_classification_type": "U",
        "meta_norad_cat_id": 43013,
        "meta_element_set_no": 999,
        "meta_rev_at_epoch": 41838,
        "meta_bstar": 5.9927802e-05,
        "meta_mean_motion_dot": 8.2e-07,
        "meta_mean_motion_ddot": 0,
        "tle_line1": "1 43013U 17073A   25349.31642716  .00000082  00000+0  59928-4 0  9998",
        "tle_line2": "2 43013  98.7601 285.5850 0002154  83.5254 276.6168 14.19526433418384"
      },
      "geometry": {
        "type": "Point",
        "coordinates": [
          -71.19410025265266,
          -16.374392638209407
        ]
      }
    },
    {
      "type": "Feature",
      "properties": {
        "norad_id": 43226,
        "name": "GOES 17",
        "group": "weather",
        "lat": -0.43165754546883367,
        "lon": -23.511573642493747,
        "alt_km": 35779.10750317449,
        "timestamp": "2025-12-15T22:44:28.563479+00:00",
        "meta_object_name": "GOES 17",
        "meta_object_id": "2018-022A",
        "meta_epoch": "2025-12-15T08:19:38.704800",
        "meta_mean_motion": 1.00271555,
        "meta_eccentricity": 0.00031547,
        "meta_inclination": 0.4662,
        "meta_ra_of_asc_node": 89.0982,
        "meta_arg_of_pericenter": 189.8367,
        "meta_mean_anomaly": 200.7349,
        "meta_ephemeris_type": 0,
        "meta_classification_type": "U",
        "meta_norad_cat_id": 43226,
        "meta_element_set_no": 999,
        "meta_rev_at_epoch": 2858,
        "meta_bstar": 0,
        "meta_mean_motion_dot": -1.62e-06,
        "meta_mean_motion_ddot": 0,
        "tle_line1": "1 43226U 18022A   25349.34697575 -.00000162  00000+0  00000+0 0  9997",
        "tle_line2": "2 43226   0.4662  89.0982 0003154 189.8367 200.7349  1.00271555 28582"
      },
      "geometry": {
        "type": "Point",
        "coordinates": [
          -23.511573642493747,
          -0.43165754546883367
        ]
      }
    },
    {
      "type": "Feature",
      "properties": {
        "norad_id": 43491,
        "name": "FENGYUN 2H",
        "group": "weather",
        "lat": 2.3064972730995086,
        "lon": 145.2598402353742,
        "alt_km": 35788.53197448019,
        "timestamp": "2025-12-15T22:44:28.563493+00:00",
        "meta_object_name": "FENGYUN 2H",
        "meta_object_id": "2018-050A",
        "meta_epoch": "2025-12-15T01:46:49.826784",
        "meta_mean_motion": 1.00271322,
        "meta_eccentricity": 0.00026231,
        "meta_inclination": 2.557,
        "meta_ra_of_asc_node": 81.3055,
        "meta_arg_of_pericenter": 167.4021,
        "meta_mean_anomaly": 301.3409,
        "meta_ephemeris_type": 0,
        "meta_classification_type": "U",
        "meta_norad_cat_id": 43491,
        "meta_element_set_no": 999,
        "meta_rev_at_epoch": 2759,
        "meta_bstar": 0,
        "meta_mean_motion_dot": -1.11e-06,
        "meta_mean_motion_ddot": 0,
        "tle_line1": "1 43491U 18050A   25349.07418781 -.00000111  00000+0  00000+0 0  9996",
        "tle_line2": "2 43491   2.5570  81.3055 0002623 167.4021 301.3409  1.00271322 27599"
      },
      "geometry": {
        "type": "Point",
        "coordinates": [
          145.2598402353742,
          2.3064972730995086
        ]
      }
    },
    {
      "type": "Feature",
      "properties": {
        "norad_id": 43689,
        "name": "METOP-C",
        "group": "weather",
        "lat": 32.32208482306445,
        "lon": -126.77694828090877,
        "alt_km": 818.7128680252599,
        "timestamp": "2025-12-15T22:44:28.563505+00:00",
        "meta_object_name": "METOP-C",
        "meta_object_id": "2018-087A",
        "meta_epoch": "2025-12-15T08:32:12.177600",
        "meta_mean_motion": 14.21485378,
        "meta_eccentricity": 0.00011284,
        "meta_inclination": 98.6929,
        "meta_ra_of_asc_node": 47.0854,
        "meta_arg_of_pericenter": 34.449,
        "meta_mean_anomaly": 325.676,
        "meta_ephemeris_type": 0,
        "meta_classification_type": "U",
        "meta_norad_cat_id": 43689,
        "meta_element_set_no": 999,
        "meta_rev_at_epoch": 36871,
        "meta_bstar": 8.1364504e-05,
        "meta_mean_motion_dot": 1.34e-06,
        "meta_mean_motion_ddot": 0,
        "tle_line1": "1 43689U 18087A   25349.35569650  .00000134  00000+0  81365-4 0  9990",
        "tle_line2": "2 43689  98.6929  47.0854 0001128  34.4490 325.6760 14.21485378368716"
      },
      "geometry": {
        "type": "Point",
        "coordinates": [
          -126.77694828090877,
          32.32208482306445
        ]
      }
    }
  ]
}